start=new Date('2022-09-21T00:00:00.000Z').valueOf();
sats=[{"LAUNCH_DATE":"2021-03-14","EPHEMERIS_TYPE":"0","REV_AT_EPOCH":"8509","TLE_LINE2":"2 47905  53.0556 183.5653 0001556  80.1097 280.0068 15.06397993 85092","BSTAR":"0.00000872890000","DECAY_DATE":null,"MEAN_ANOMALY":"280.0068","RA_OF_ASC_NODE":"183.5653","OBJECT_TYPE":"PAYLOAD","NORAD_CAT_ID":"47905","CLASSIFICATION_TYPE":"U","INCLINATION":"53.0556","ELEMENT_SET_NO":"999","FILE":"3578988","MEAN_MOTION":"15.06397993","RCS_SIZE":"LARGE","MEAN_MOTION_DDOT":"0.0000000000000","APOAPSIS":"548.297","TIME_SYSTEM":"UTC","EPOCH":"2022-09-20T23:42:36.466848","SITE":"AFETR","ARG_OF_PERICENTER":"80.1097","OBJECT_NAME":"STARLINK-2365","TLE_LINE1":"1 47905U 21021AX  22263.98792207 -.00000152  00000-0  87289-5 0  9998","OBJECT_ID":"2021-021AX","CENTER_NAME":"EARTH","REF_FRAME":"TEME","MEAN_ELEMENT_THEORY":"SGP4","SEMIMAJOR_AXIS":"6925.355","PERIOD":"95.592","MEAN_MOTION_DOT":"-0.00000152","ECCENTRICITY":"0.00015560","COUNTRY_CODE":"US","PERIAPSIS":"546.142","GP_ID":"213152468"},{"SITE":"AFETR","OBJECT_NAME":"STARLINK-2366","ARG_OF_PERICENTER":"279.3486","OBJECT_ID":"2021-021AY","TLE_LINE1":"1 47906U 21021AY  22263.66621187 -.00009048  00000-0 -51127-4 0  9997","CENTER_NAME":"EARTH","REF_FRAME":"TEME","SEMIMAJOR_AXIS":"6717.871","MEAN_ELEMENT_THEORY":"SGP4","PERIOD":"91.329","MEAN_MOTION_DOT":"-0.00009048","ECCENTRICITY":"0.00086400","COUNTRY_CODE":"US","PERIAPSIS":"333.931","GP_ID":"213122308","LAUNCH_DATE":"2021-03-14","EPHEMERIS_TYPE":"0","REV_AT_EPOCH":"8851","TLE_LINE2":"2 47906  53.0267 337.5641 0008640 279.3486  80.6557 15.76722642 88512","BSTAR":"-0.00005112700000","DECAY_DATE":null,"MEAN_ANOMALY":"80.6557","OBJECT_TYPE":"PAYLOAD","RA_OF_ASC_NODE":"337.5641","NORAD_CAT_ID":"47906","CLASSIFICATION_TYPE":"U","INCLINATION":"53.0267","ELEMENT_SET_NO":"999","FILE":"3578945","MEAN_MOTION":"15.76722642","RCS_SIZE":"LARGE","APOAPSIS":"345.540","MEAN_MOTION_DDOT":"0.0000000000000","EPOCH":"2022-09-20T15:59:20.705568","TIME_SYSTEM":"UTC"},{"CLASSIFICATION_TYPE":"U","OBJECT_TYPE":"PAYLOAD","NORAD_CAT_ID":"47907","RA_OF_ASC_NODE":"202.9428","MEAN_ANOMALY":"279.0457","DECAY_DATE":null,"BSTAR":"0.00001536500000","TLE_LINE2":"2 47907  53.0534 202.9428 0001476  81.0699 279.0457 15.06400028 84829","REV_AT_EPOCH":"8482","LAUNCH_DATE":"2021-03-14","EPHEMERIS_TYPE":"0","RCS_SIZE":"LARGE","APOAPSIS":"548.236","MEAN_MOTION_DDOT":"0.0000000000000","TIME_SYSTEM":"UTC","EPOCH":"2022-09-21T03:08:19.257216","MEAN_MOTION":"15.06400028","FILE":"3578988","ELEMENT_SET_NO":"999","INCLINATION":"53.0534","REF_FRAME":"TEME","CENTER_NAME":"EARTH","TLE_LINE1":"1 47907U 21021AZ  22264.13077844 -.00000053  00000-0  15365-4 0  9996","OBJECT_ID":"2021-021AZ","ARG_OF_PERICENTER":"81.0699","OBJECT_NAME":"STARLINK-2367","SITE":"AFETR","GP_ID":"213152862","PERIAPSIS":"546.191","COUNTRY_CODE":"US","ECCENTRICITY":"0.00014760","MEAN_MOTION_DOT":"-0.00000053","PERIOD":"95.592","SEMIMAJOR_AXIS":"6925.348","MEAN_ELEMENT_THEORY":"SGP4"},{"SITE":"AFETR","CENTER_NAME":"EARTH","TLE_LINE1":"1 47908U 21021BA  22263.54102722  .00001576  00000-0  12472-3 0  9990","OBJECT_ID":"2021-021BA","ARG_OF_PERICENTER":"74.5657","OBJECT_NAME":"STARLINK-2368","REF_FRAME":"TEME","PERIOD":"95.592","SEMIMAJOR_AXIS":"6925.363","MEAN_ELEMENT_THEORY":"SGP4","COUNTRY_CODE":"US","ECCENTRICITY":"0.00014090","MEAN_MOTION_DOT":"0.00001576","PERIAPSIS":"546.252","GP_ID":"213097762","REV_AT_EPOCH":"8473","EPHEMERIS_TYPE":"0","LAUNCH_DATE":"2021-03-14","BSTAR":"0.00012472000000","TLE_LINE2":"2 47908  53.0535 205.5914 0001409  74.5657 285.5487 15.06395247 84738","CLASSIFICATION_TYPE":"U","OBJECT_TYPE":"PAYLOAD","NORAD_CAT_ID":"47908","RA_OF_ASC_NODE":"205.5914","MEAN_ANOMALY":"285.5487","DECAY_DATE":null,"INCLINATION":"53.0535","MEAN_MOTION":"15.06395247","FILE":"3578809","ELEMENT_SET_NO":"999","APOAPSIS":"548.204","RCS_SIZE":"LARGE","TIME_SYSTEM":"UTC","MEAN_MOTION_DDOT":"0.0000000000000","EPOCH":"2022-09-20T12:59:04.751808"},{"MEAN_MOTION_DDOT":"0.0000000000000","RCS_SIZE":"LARGE","APOAPSIS":"548.150","TIME_SYSTEM":"UTC","EPOCH":"2022-09-21T02:05:57.287904","INCLINATION":"53.0539","FILE":"3578989","MEAN_MOTION":"15.06391755","ELEMENT_SET_NO":"999","BSTAR":"-0.00005371700000","TLE_LINE2":"2 47909  53.0539 193.1369 0001315  74.1386 285.9748 15.06391755 84958","OBJECT_TYPE":"PAYLOAD","NORAD_CAT_ID":"47909","RA_OF_ASC_NODE":"193.1369","CLASSIFICATION_TYPE":"U","DECAY_DATE":null,"MEAN_ANOMALY":"285.9748","LAUNCH_DATE":"2021-03-14","EPHEMERIS_TYPE":"0","REV_AT_EPOCH":"8495","PERIAPSIS":"546.328","GP_ID":"213152887","MEAN_ELEMENT_THEORY":"SGP4","SEMIMAJOR_AXIS":"6925.374","PERIOD":"95.593","ECCENTRICITY":"0.00013150","COUNTRY_CODE":"US","MEAN_MOTION_DOT":"-0.00001081","CENTER_NAME":"EARTH","ARG_OF_PERICENTER":"74.1386","OBJECT_NAME":"STARLINK-2369","TLE_LINE1":"1 47909U 21021BB  22264.08746861 -.00001081  00000-0 -53717-4 0  9990","OBJECT_ID":"2021-021BB","REF_FRAME":"TEME","SITE":"AFETR"},{"RCS_SIZE":"LARGE","APOAPSIS":"548.425","MEAN_MOTION_DDOT":"0.0000000000000","TIME_SYSTEM":"UTC","EPOCH":"2022-09-20T23:46:36.283008","INCLINATION":"53.0551","ELEMENT_SET_NO":"999","FILE":"3578991","MEAN_MOTION":"15.06391210","TLE_LINE2":"2 47910  53.0551 193.5741 0001711  70.2489 289.8685 15.06391210 84941","BSTAR":"-0.00006965700000","DECAY_DATE":null,"MEAN_ANOMALY":"289.8685","OBJECT_TYPE":"PAYLOAD","RA_OF_ASC_NODE":"193.5741","NORAD_CAT_ID":"47910","CLASSIFICATION_TYPE":"U","LAUNCH_DATE":"2021-03-14","EPHEMERIS_TYPE":"0","REV_AT_EPOCH":"8494","PERIAPSIS":"546.056","GP_ID":"213152513","SEMIMAJOR_AXIS":"6925.375","MEAN_ELEMENT_THEORY":"SGP4","PERIOD":"95.593","MEAN_MOTION_DOT":"-0.00001319","ECCENTRICITY":"0.00017110","COUNTRY_CODE":"US","ARG_OF_PERICENTER":"70.2489","OBJECT_NAME":"STARLINK-2370","TLE_LINE1":"1 47910U 21021BC  22263.99069772 -.00001319  00000-0 -69657-4 0  9994","OBJECT_ID":"2021-021BC","CENTER_NAME":"EARTH","REF_FRAME":"TEME","SITE":"AFETR"},{"CENTER_NAME":"EARTH","OBJECT_NAME":"STARLINK-2371","ARG_OF_PERICENTER":"53.7102","TLE_LINE1":"1 47911U 21021BD  22263.21071042  .00001990  00000-0  15244-3 0  9998","OBJECT_ID":"2021-021BD","REF_FRAME":"TEME","SITE":"AFETR","PERIAPSIS":"545.963","GP_ID":"213069571","MEAN_ELEMENT_THEORY":"SGP4","SEMIMAJOR_AXIS":"6925.330","PERIOD":"95.592","ECCENTRICITY":"0.00017780","COUNTRY_CODE":"US","MEAN_MOTION_DOT":"0.00001990","BSTAR":"0.00015244000000","TLE_LINE2":"2 47911  53.0556 212.3132 0001778  53.7102 306.4051 15.06406188 84935","OBJECT_TYPE":"PAYLOAD","NORAD_CAT_ID":"47911","RA_OF_ASC_NODE":"212.3132","CLASSIFICATION_TYPE":"U","DECAY_DATE":null,"MEAN_ANOMALY":"306.4051","EPHEMERIS_TYPE":"0","LAUNCH_DATE":"2021-03-14","REV_AT_EPOCH":"8493","RCS_SIZE":"LARGE","MEAN_MOTION_DDOT":"0.0000000000000","APOAPSIS":"548.426","TIME_SYSTEM":"UTC","EPOCH":"2022-09-20T05:03:25.380288","INCLINATION":"53.0556","FILE":"3578736","MEAN_MOTION":"15.06406188","ELEMENT_SET_NO":"999"},{"ECCENTRICITY":"0.00019030","COUNTRY_CODE":"US","MEAN_MOTION_DOT":"-0.00000164","SEMIMAJOR_AXIS":"6925.348","MEAN_ELEMENT_THEORY":"SGP4","PERIOD":"95.592","GP_ID":"213152551","PERIAPSIS":"545.895","SITE":"AFETR","REF_FRAME":"TEME","CENTER_NAME":"EARTH","OBJECT_NAME":"STARLINK-2372","ARG_OF_PERICENTER":"78.1794","TLE_LINE1":"1 47912U 21021BE  22264.04966400 -.00000164  00000-0  78672-5 0  9991","OBJECT_ID":"2021-021BE","FILE":"3578993","MEAN_MOTION":"15.06400305","ELEMENT_SET_NO":"999","INCLINATION":"53.0572","RCS_SIZE":"LARGE","APOAPSIS":"548.531","MEAN_MOTION_DDOT":"0.0000000000000","EPOCH":"2022-09-21T01:11:30.969600","TIME_SYSTEM":"UTC","EPHEMERIS_TYPE":"0","LAUNCH_DATE":"2021-03-14","REV_AT_EPOCH":"8494","OBJECT_TYPE":"PAYLOAD","RA_OF_ASC_NODE":"193.2964","NORAD_CAT_ID":"47912","CLASSIFICATION_TYPE":"U","DECAY_DATE":null,"MEAN_ANOMALY":"281.9408","BSTAR":"0.00000786720000","TLE_LINE2":"2 47912  53.0572 193.2964 0001903  78.1794 281.9408 15.06400305 84941"},{"EPOCH":"2022-09-21T02:57:48.195072","RCS_SIZE":"LARGE","APOAPSIS":"548.392","MEAN_MOTION_DDOT":"0.0000000000000","TIME_SYSTEM":"UTC","ELEMENT_SET_NO":"999","FILE":"3578993","MEAN_MOTION":"15.06359282","INCLINATION":"53.0544","DECAY_DATE":null,"MEAN_ANOMALY":"276.2771","OBJECT_TYPE":"PAYLOAD","NORAD_CAT_ID":"47913","RA_OF_ASC_NODE":"203.4472","CLASSIFICATION_TYPE":"U","TLE_LINE2":"2 47913  53.0544 203.4472 0001522  83.8391 276.2771 15.06359282 84815","BSTAR":"0.00049513000000","LAUNCH_DATE":"2021-03-14","EPHEMERIS_TYPE":"0","REV_AT_EPOCH":"8481","GP_ID":"213152548","PERIAPSIS":"546.284","MEAN_MOTION_DOT":"0.00007093","ECCENTRICITY":"0.00015220","COUNTRY_CODE":"US","SEMIMAJOR_AXIS":"6925.473","MEAN_ELEMENT_THEORY":"SGP4","PERIOD":"95.595","REF_FRAME":"TEME","OBJECT_NAME":"STARLINK-2374","ARG_OF_PERICENTER":"83.8391","TLE_LINE1":"1 47913U 21021BF  22264.12347448  .00007093  00000-0  49513-3 0  9993","OBJECT_ID":"2021-021BF","CENTER_NAME":"EARTH","SITE":"AFETR"},{"INCLINATION":"53.0535","MEAN_MOTION":"15.06392706","FILE":"3578773","ELEMENT_SET_NO":"999","RCS_SIZE":"LARGE","MEAN_MOTION_DDOT":"0.0000000000000","APOAPSIS":"548.176","EPOCH":"2022-09-20T13:04:23.477088","TIME_SYSTEM":"UTC","REV_AT_EPOCH":"8473","EPHEMERIS_TYPE":"0","LAUNCH_DATE":"2021-03-14","BSTAR":"-0.00003646800000","TLE_LINE2":"2 47914  53.0535 205.5742 0001357  74.1077 286.0062 15.06392706 84730","CLASSIFICATION_TYPE":"U","OBJECT_TYPE":"PAYLOAD","NORAD_CAT_ID":"47914","RA_OF_ASC_NODE":"205.5742","MEAN_ANOMALY":"286.0062","DECAY_DATE":null,"PERIOD":"95.593","SEMIMAJOR_AXIS":"6925.371","MEAN_ELEMENT_THEORY":"SGP4","COUNTRY_CODE":"US","ECCENTRICITY":"0.00013570","MEAN_MOTION_DOT":"-0.00000824","PERIAPSIS":"546.296","GP_ID":"213097029","SITE":"AFETR","CENTER_NAME":"EARTH","OBJECT_ID":"2021-021BG","TLE_LINE1":"1 47914U 21021BG  22263.54471617 -.00000824  00000-0 -36468-4 0  9998","OBJECT_NAME":"STARLINK-2375","ARG_OF_PERICENTER":"74.1077","REF_FRAME":"TEME"}];
